{
    "links": {
        "self": "http://www.neowsapp.com/rest/v1/neo/3445071?api_key=iIulBulltgU6a56xZRHN4H3l9WmuAYTsLGpBGhQ2"
    },
    "id": "3445071",
    "neo_reference_id": "3445071",
    "name": "(2009 BF58)",
    "designation": "2009 BF58",
    "nasa_jpl_url": "http://ssd.jpl.nasa.gov/sbdb.cgi?sstr=3445071",
    "absolute_magnitude_h": 27.3,
    "estimated_diameter": {
        "kilometers": {
            "estimated_diameter_min": 0.0092162655,
            "estimated_diameter_max": 0.0206081961
        },
        "meters": {
            "estimated_diameter_min": 9.216265485,
            "estimated_diameter_max": 20.6081961232
        },
        "miles": {
            "estimated_diameter_min": 0.0057267201,
            "estimated_diameter_max": 0.0128053354
        },
        "feet": {
            "estimated_diameter_min": 30.2370924539,
            "estimated_diameter_max": 67.6121941689
        }
    },
    "is_potentially_hazardous_asteroid": false,
    "close_approach_data": [
        {
            "close_approach_date": "2009-01-22",
            "close_approach_date_full": "2009-Jan-22 17:16",
            "epoch_date_close_approach": 1232644560000,
            "relative_velocity": {
                "kilometers_per_second": "7.8784681263",
                "kilometers_per_hour": "28362.4852547319",
                "miles_per_hour": "17623.3453517527"
            },
            "miss_distance": {
                "astronomical": "0.008779455",
                "lunar": "3.415207995",
                "kilometers": "1313387.76776085",
                "miles": "816101.31576573"
            },
            "orbiting_body": "Moon"
        },
        {
            "close_approach_date": "2009-01-22",
            "close_approach_date_full": "2009-Jan-22 19:48",
            "epoch_date_close_approach": 1232653680000,
            "relative_velocity": {
                "kilometers_per_second": "6.9390988004",
                "kilometers_per_hour": "24980.7556812965",
                "miles_per_hour": "15522.0701065256"
            },
            "miss_distance": {
                "astronomical": "0.0061522063",
                "lunar": "2.3932082507",
                "kilometers": "920356.958280581",
                "miles": "571883.2952947778"
            },
            "orbiting_body": "Earth"
        }
    ],
    "orbital_data": {
        "orbit_id": "14",
        "orbit_determination_date": "2017-04-06 09:01:33",
        "first_observation_date": "2009-01-28",
        "last_observation_date": "2009-02-25",
        "data_arc_in_days": 28,
        "observations_used": 55,
        "orbit_uncertainty": "7",
        "minimum_orbit_intersection": ".000628584",
        "jupiter_tisserand_invariant": "4.439",
        "epoch_osculation": "2459000.5",
        "eccentricity": ".3776766039559317",
        "semi_major_axis": "1.51208649938878",
        "inclination": ".984642568655102",
        "ascending_node_longitude": "303.2407385647742",
        "orbital_period": "679.1463650897948",
        "perihelion_distance": ".941006805412013",
        "perihelion_argument": "145.1497839245322",
        "aphelion_distance": "2.083166193365548",
        "perihelion_time": "2458902.557360011613",
        "mean_anomaly": "51.91715984691655",
        "mean_motion": ".5300771947036804",
        "equinox": "J2000",
        "orbit_class": {
            "orbit_class_type": "APO",
            "orbit_class_description": "Near-Earth asteroid orbits which cross the Earth’s orbit similar to that of 1862 Apollo",
            "orbit_class_range": "a (semi-major axis) > 1.0 AU; q (perihelion) < 1.017 AU"
        }
    },
    "is_sentry_object": false
}